STARLINK-31357          
1 59502U 24071U   26067.46083297  .00001700  00000+0  71267-4 0  9999
2 59502  43.0025 347.0335 0001013 264.2594  95.8142 15.27591756108016
FLOCK 4G-3              
1 62639U 25009AG  26068.80174065  .00011494  00000+0  43389-3 0  9993
2 62639  97.4062 151.4068 0001320 293.2042  66.9058 15.27179310 63727
